KUIPER-00028            
1 63741U 25088T   26063.36192456  .00003680  00000+0  51058-3 0  9995
2 63741  51.8989 116.6123 0000624  77.0276 283.0756 14.80003574 47277
KUIPER-00029            
1 63742U 25088U   26063.44332870  .00007854  00000+0  96965-3 0  9994
2 63742  51.9007 113.9122 0000705  99.8509 260.2535 14.83608419 46846
KUIPER-00030            
1 63743U 25088V   26063.37689775 -.00001150  00000+0 -12136-3 0  9999
2 63743  51.8974 134.0356 0010476  57.1843 303.0127 14.79939403 46844
KUIPER-00031            
1 63744U 25088W   26063.45042745  .00007978  00000+0  98459-3 0  9993
2 63744  51.8994 118.9941 0002205 128.1228 231.9935 14.83605448 46777
KUIPER-00032            
1 63745U 25088X   26063.33744210  .00024737  00000+0  67870-3 0  9992
2 63745  51.8699  50.1004 0005313  92.7924 267.3671 15.37109379 48728
KUIPER-00033            
1 63746U 25088Y   26063.43425766  .00009242  00000+0  11416-2 0  9994
2 63746  51.9006 149.2249 0000831  43.8687 316.2343 14.83400226 46831
KUIPER-00034            
1 63747U 25088Z   26063.32220489  .00007615  00000+0  94221-3 0  9996
2 63747  51.9020 112.0630 0001770 338.1324  21.9564 14.83554949 47020
KUIPER-00035            
1 63748U 25088AA  26063.50001156 -.00004319  00000+0 -49597-3 0  9991
2 63748  51.8991 136.9391 0003993  58.9797 327.9516 14.83238522  3008
KUIPER-00037            
1 63749U 25088AB  26063.44174650  .00014846  00000+0  19735-2 0  9999
2 63749  51.9000 136.2674 0001052  39.5446 320.5593 14.79903678 47534
KUIPER-00038            
1 63750U 25088AC  26063.45792776  .00004434  00000+0  61021-3 0  9995
2 63750  51.9021 121.2260 0000676  85.8482 274.2557 14.79937295 46748
KUIPER-00039            
1 64500U 25134A   26063.49813242  .00005206  00000+0  71143-3 0  9991
2 64500  51.8998 256.0498 0001026  63.9430 296.1638 14.79930208 39308
KUIPER-00040            
1 64501U 25134B   26063.01286954  .00014632  00000+0  19402-2 0  9996
2 64501  51.8999 269.3360 0013342 246.5276 113.4285 14.79966712 39078
KUIPER-00041            
1 64502U 25134C   26062.81429755  .00004860  00000+0  68539-3 0  9990
2 64502  51.8983 271.6176 0007130 245.2888 114.7331 14.78700498 39023
KUIPER-00042            
1 64503U 25134D   26062.81296569  .00004678  00000+0  64321-3 0  9998
2 64503  51.8987 267.5802 0007322 260.6370  99.3764 14.79864023 39088
KUIPER-00043            
1 64504U 25134E   26062.73614717  .00005369  00000+0  66892-3 0  9992
2 64504  51.8998 259.5065 0000923 315.9393  44.1497 14.83786115 39195
KUIPER-00044            
1 64505U 25134F   26063.01010597 -.00016274  00000+0 -21098-2 0  9998
2 64505  51.8995 271.7064 0007637 257.7879 102.2229 14.79927713 39048
KUIPER-00046            
1 64506U 25134G   26062.81186625  .00004813  00000+0  65979-3 0  9993
2 64506  51.8972 269.0433 0000735 112.5565 247.5475 14.79940918 39066
